{
  "type": "FeatureCollection",
  "features": [
    {
      "type": "Feature",
      "properties": {
        "norad_id": 66467,
        "name": "STARLINK-35682",
        "group": "last-30-days",
        "lat": 37.400432522314,
        "lon": 143.50244764551647,
        "alt_km": 423.5059168306316,
        "timestamp": "2025-12-09T18:55:16.021619+00:00",
        "meta_object_name": "STARLINK-35682",
        "meta_object_id": "2025-262M",
        "meta_epoch": "2025-12-09T14:00:01.999872",
        "meta_mean_motion": 15.4685661,
        "meta_eccentricity": 0.00015243,
        "meta_inclination": 43.0001,
        "meta_ra_of_asc_node": 89.5613,
        "meta_arg_of_pericenter": 280.643,
        "meta_mean_anomaly": 79.6461,
        "meta_ephemeris_type": 0,
        "meta_classification_type": "U",
        "meta_norad_cat_id": 66467,
        "meta_element_set_no": 999,
        "meta_rev_at_epoch": 513,
        "meta_bstar": -0.045378419,
        "meta_mean_motion_dot": -0.02074819,
        "meta_mean_motion_ddot": 0,
        "tle_line1": "1 66467U 25262M   25343.58335648 -.02074819  00000+0 -45378-1 0  9995",
        "tle_line2": "2 66467  43.0001  89.5613 0001524 280.6430  79.6461 15.46856610  5130"
      },
      "geometry": {
        "type": "Point",
        "coordinates": [
          143.50244764551647,
          37.400432522314
        ]
      }
    },
    {
      "type": "Feature",
      "properties": {
        "norad_id": 66468,
        "name": "STARLINK-35331",
        "group": "last-30-days",
        "lat": 41.69881404443545,
        "lon": 161.2853861912752,
        "alt_km": 409.032666809896,
        "timestamp": "2025-12-09T18:55:16.021629+00:00",
        "meta_object_name": "STARLINK-35331",
        "meta_object_id": "2025-262N",
        "meta_epoch": "2025-12-09T15:29:49.911648",
        "meta_mean_motion": 15.50536877,
        "meta_eccentricity": 8.605e-05,
        "meta_inclination": 43.0007,
        "meta_ra_of_asc_node": 89.1667,
        "meta_arg_of_pericenter": 279.6223,
        "meta_mean_anomaly": 80.454,
        "meta_ephemeris_type": 0,
        "meta_classification_type": "U",
        "meta_norad_cat_id": 66468,
        "meta_element_set_no": 999,
        "meta_rev_at_epoch": 508,
        "meta_bstar": 0.00059192846,
        "meta_mean_motion_dot": 0.00034484,
        "meta_mean_motion_ddot": 0,
        "tle_line1": "1 66468U 25262N   25343.64571657  .00034484  00000+0  59193-3 0  9997",
        "tle_line2": "2 66468  43.0007  89.1667 0000860 279.6223  80.4540 15.50536877  5089"
      },
      "geometry": {
        "type": "Point",
        "coordinates": [
          161.2853861912752,
          41.69881404443545
        ]
      }
    },
    {
      "type": "Feature",
      "properties": {
        "norad_id": 66469,
        "name": "STARLINK-35451",
        "group": "last-30-days",
        "lat": 42.60689514332467,
        "lon": 169.07741312095578,
        "alt_km": 408.93148277661203,
        "timestamp": "2025-12-09T18:55:16.021641+00:00",
        "meta_object_name": "STARLINK-35451",
        "meta_object_id": "2025-262P",
        "meta_epoch": "2025-12-09T15:28:20.271648",
        "meta_mean_motion": 15.50631911,
        "meta_eccentricity": 0.00014236,
        "meta_inclination": 43.0003,
        "meta_ra_of_asc_node": 89.1572,
        "meta_arg_of_pericenter": 273.5774,
        "meta_mean_anomaly": 86.4923,
        "meta_ephemeris_type": 0,
        "meta_classification_type": "U",
        "meta_norad_cat_id": 66469,
        "meta_element_set_no": 999,
        "meta_rev_at_epoch": 508,
        "meta_bstar": 0.0025854483,
        "meta_mean_motion_dot": 0.00154659,
        "meta_mean_motion_ddot": 0,
        "tle_line1": "1 66469U 25262P   25343.64467907  .00154659  00000+0  25854-2 0  9993",
        "tle_line2": "2 66469  43.0003  89.1572 0001423 273.5774  86.4923 15.50631911  5087"
      },
      "geometry": {
        "type": "Point",
        "coordinates": [
          169.07741312095578,
          42.60689514332467
        ]
      }
    },
    {
      "type": "Feature",
      "properties": {
        "norad_id": 66470,
        "name": "STARLINK-35655",
        "group": "last-30-days",
        "lat": 42.06899264401484,
        "lon": 163.9291656785291,
        "alt_km": 409.13144873371675,
        "timestamp": "2025-12-09T18:55:16.021651+00:00",
        "meta_object_name": "STARLINK-35655",
        "meta_object_id": "2025-262Q",
        "meta_epoch": "2025-12-09T15:29:19.547232",
        "meta_mean_motion": 15.50619241,
        "meta_eccentricity": 0.00014995,
        "meta_inclination": 43.0001,
        "meta_ra_of_asc_node": 89.1632,
        "meta_arg_of_pericenter": 263.2552,
        "meta_mean_anomaly": 96.8137,
        "meta_ephemeris_type": 0,
        "meta_classification_type": "U",
        "meta_norad_cat_id": 66470,
        "meta_element_set_no": 999,
        "meta_rev_at_epoch": 508,
        "meta_bstar": 0.0023024056,
        "meta_mean_motion_dot": 0.00137321,
        "meta_mean_motion_ddot": 0,
        "tle_line1": "1 66470U 25262Q   25343.64536513  .00137321  00000+0  23024-2 0  9999",
        "tle_line2": "2 66470  43.0001  89.1632 0001499 263.2552  96.8137 15.50619241  5081"
      },
      "geometry": {
        "type": "Point",
        "coordinates": [
          163.9291656785291,
          42.06899264401484
        ]
      }
    },
    {
      "type": "Feature",
      "properties": {
        "norad_id": 66471,
        "name": "STARLINK-35569",
        "group": "last-30-days",
        "lat": 42.36285901550024,
        "lon": 166.45521136552816,
        "alt_km": 409.1023453943071,
        "timestamp": "2025-12-09T18:55:16.021661+00:00",
        "meta_object_name": "STARLINK-35569",
        "meta_object_id": "2025-262R",
        "meta_epoch": "2025-12-09T15:28:50.068416",
        "meta_mean_motion": 15.50596971,
        "meta_eccentricity": 0.00013888,
        "meta_inclination": 43.0001,
        "meta_ra_of_asc_node": 89.1604,
        "meta_arg_of_pericenter": 269.9878,
        "meta_mean_anomaly": 90.0823,
        "meta_ephemeris_type": 0,
        "meta_classification_type": "U",
        "meta_norad_cat_id": 66471,
        "meta_element_set_no": 999,
        "meta_rev_at_epoch": 508,
        "meta_bstar": 0.0015515367,
        "meta_mean_motion_dot": 0.00091812,
        "meta_mean_motion_ddot": 0,
        "tle_line1": "1 66471U 25262R   25343.64502394  .00091812  00000+0  15515-2 0  9990",
        "tle_line2": "2 66471  43.0001  89.1604 0001388 269.9878  90.0823 15.50596971  5084"
      },
      "geometry": {
        "type": "Point",
        "coordinates": [
          166.45521136552816,
          42.36285901550024
        ]
      }
    },
    {
      "type": "Feature",
      "properties": {
        "norad_id": 66472,
        "name": "STARLINK-35567",
        "group": "last-30-days",
        "lat": 42.787210996327005,
        "lon": 171.66909743656572,
        "alt_km": 408.9735561597654,
        "timestamp": "2025-12-09T18:55:16.021675+00:00",
        "meta_object_name": "STARLINK-35567",
        "meta_object_id": "2025-262S",
        "meta_epoch": "2025-12-09T15:27:50.617440",
        "meta_mean_motion": 15.50627332,
        "meta_eccentricity": 0.00014858,
        "meta_inclination": 43.0001,
        "meta_ra_of_asc_node": 89.1547,
        "meta_arg_of_pericenter": 271.3343,
        "meta_mean_anomaly": 88.7347,
        "meta_ephemeris_type": 0,
        "meta_classification_type": "U",
        "meta_norad_cat_id": 66472,
        "meta_element_set_no": 999,
        "meta_rev_at_epoch": 508,
        "meta_bstar": 0.0025133427,
        "meta_mean_motion_dot": 0.00150226,
        "meta_mean_motion_ddot": 0,
        "tle_line1": "1 66472U 25262S   25343.64433585  .00150226  00000+0  25133-2 0  9998",
        "tle_line2": "2 66472  43.0001  89.1547 0001485 271.3343  88.7347 15.50627332  5084"
      },
      "geometry": {
        "type": "Point",
        "coordinates": [
          171.66909743656572,
          42.787210996327005
        ]
      }
    },
    {
      "type": "Feature",
      "properties": {
        "norad_id": 66473,
        "name": "STARLINK-35568",
        "group": "last-30-days",
        "lat": 42.908914574936105,
        "lon": 174.26824417547337,
        "alt_km": 408.9838033900587,
        "timestamp": "2025-12-09T18:55:16.021685+00:00",
        "meta_object_name": "STARLINK-35568",
        "meta_object_id": "2025-262T",
        "meta_epoch": "2025-12-09T15:27:20.992608",
        "meta_mean_motion": 15.50623089,
        "meta_eccentricity": 0.0001485,
        "meta_inclination": 43.0004,
        "meta_ra_of_asc_node": 89.1516,
        "meta_arg_of_pericenter": 263.3771,
        "meta_mean_anomaly": 96.692,
        "meta_ephemeris_type": 0,
        "meta_classification_type": "U",
        "meta_norad_cat_id": 66473,
        "meta_element_set_no": 999,
        "meta_rev_at_epoch": 508,
        "meta_bstar": 0.0023109721,
        "meta_mean_motion_dot": 0.00137862,
        "meta_mean_motion_ddot": 0,
        "tle_line1": "1 66473U 25262T   25343.64399297  .00137862  00000+0  23110-2 0  9994",
        "tle_line2": "2 66473  43.0004  89.1516 0001485 263.3771  96.6920 15.50623089  5080"
      },
      "geometry": {
        "type": "Point",
        "coordinates": [
          174.26824417547337,
          42.908914574936105
        ]
      }
    }
  ]
}